CCSDS_OMM_VERS = 2.0
CREATION_DATE  = 
ORIGINATOR     = 

OBJECT_NAME    = STARLINK-36719
OBJECT_ID      = 2026-022A
CENTER_NAME    = EARTH
REF_FRAME      = TEME
TIME_SYSTEM    = UTC
MEAN_ELEMENT_THEORY = SGP/SGP4

EPOCH          = 2026-03-03T05:54:48.526272
MEAN_MOTION    = 15.75283115
ECCENTRICITY   = .0001244
INCLINATION    = 97.2826
RA_OF_ASC_NODE = 95.8906
ARG_OF_PERICENTER = 51.8110
MEAN_ANOMALY   = 308.3267

EPHEMERIS_TYPE = 0
CLASSIFICATION_TYPE = U
NORAD_CAT_ID   = 67648
ELEMENT_SET_NO = 999
REV_AT_EPOCH   = 453
BSTAR          = .1825E-2
MEAN_MOTION_DOT = .282406E-2
MEAN_MOTION_DDOT = 0

CCSDS_OMM_VERS = 2.0
CREATION_DATE  = 
ORIGINATOR     = 

OBJECT_NAME    = STARLINK-36342
OBJECT_ID      = 2026-022B
CENTER_NAME    = EARTH
REF_FRAME      = TEME
TIME_SYSTEM    = UTC
MEAN_ELEMENT_THEORY = SGP/SGP4

EPOCH          = 2026-03-03T05:53:47.406912
MEAN_MOTION    = 15.75277629
ECCENTRICITY   = .0001124
INCLINATION    = 97.2832
RA_OF_ASC_NODE = 95.8926
ARG_OF_PERICENTER = 59.2411
MEAN_ANOMALY   = 300.8964

EPHEMERIS_TYPE = 0
CLASSIFICATION_TYPE = U
NORAD_CAT_ID   = 67649
ELEMENT_SET_NO = 999
REV_AT_EPOCH   = 453
BSTAR          = .16171E-2
MEAN_MOTION_DOT = .249191E-2
MEAN_MOTION_DDOT = 0

CCSDS_OMM_VERS = 2.0
CREATION_DATE  = 
ORIGINATOR     = 

OBJECT_NAME    = STARLINK-36703
OBJECT_ID      = 2026-022C
CENTER_NAME    = EARTH
REF_FRAME      = TEME
TIME_SYSTEM    = UTC
MEAN_ELEMENT_THEORY = SGP/SGP4

EPOCH          = 2026-03-03T01:17:49.600320
MEAN_MOTION    = 15.75263156
ECCENTRICITY   = .0001361
INCLINATION    = 97.2825
RA_OF_ASC_NODE = 95.6922
ARG_OF_PERICENTER = 95.9088
MEAN_ANOMALY   = 264.2333

EPHEMERIS_TYPE = 0
CLASSIFICATION_TYPE = U
NORAD_CAT_ID   = 67650
ELEMENT_SET_NO = 999
REV_AT_EPOCH   = 450
BSTAR          = .11671E-2
MEAN_MOTION_DOT = .178193E-2
MEAN_MOTION_DDOT = 0

CCSDS_OMM_VERS = 2.0
CREATION_DATE  = 
ORIGINATOR     = 

OBJECT_NAME    = STARLINK-36696
OBJECT_ID      = 2026-022D
CENTER_NAME    = EARTH
REF_FRAME      = TEME
TIME_SYSTEM    = UTC
MEAN_ELEMENT_THEORY = SGP/SGP4

EPOCH          = 2026-03-03T01:15:17.208000
MEAN_MOTION    = 15.75263482
ECCENTRICITY   = .0001407
INCLINATION    = 97.2825
RA_OF_ASC_NODE = 95.6950
ARG_OF_PERICENTER = 92.8378
MEAN_ANOMALY   = 267.3048

EPHEMERIS_TYPE = 0
CLASSIFICATION_TYPE = U
NORAD_CAT_ID   = 67651
ELEMENT_SET_NO = 999
REV_AT_EPOCH   = 450
BSTAR          = .11634E-2
MEAN_MOTION_DOT = .177624E-2
MEAN_MOTION_DDOT = 0

CCSDS_OMM_VERS = 2.0
CREATION_DATE  = 
ORIGINATOR     = 

OBJECT_NAME    = STARLINK-36699
OBJECT_ID      = 2026-022E
CENTER_NAME    = EARTH
REF_FRAME      = TEME
TIME_SYSTEM    = UTC
MEAN_ELEMENT_THEORY = SGP/SGP4

EPOCH          = 2026-03-03T01:14:16.302048
MEAN_MOTION    = 15.75302558
ECCENTRICITY   = .0001087
INCLINATION    = 97.2831
RA_OF_ASC_NODE = 95.6971
ARG_OF_PERICENTER = 108.3939
MEAN_ANOMALY   = 251.7444

EPHEMERIS_TYPE = 0
CLASSIFICATION_TYPE = U
NORAD_CAT_ID   = 67652
ELEMENT_SET_NO = 999
REV_AT_EPOCH   = 450
BSTAR          = .21462E-2
MEAN_MOTION_DOT = .334489E-2
MEAN_MOTION_DDOT = 0

CCSDS_OMM_VERS = 2.0
CREATION_DATE  = 
ORIGINATOR     = 

OBJECT_NAME    = STARLINK-36694
OBJECT_ID      = 2026-022F
CENTER_NAME    = EARTH
REF_FRAME      = TEME
TIME_SYSTEM    = UTC
MEAN_ELEMENT_THEORY = SGP/SGP4

EPOCH          = 2026-03-03T01:11:13.335360
MEAN_MOTION    = 15.75347416
ECCENTRICITY   = .0000375
INCLINATION    = 97.2809
RA_OF_ASC_NODE = 95.6980
ARG_OF_PERICENTER = 3.8526
MEAN_ANOMALY   = 356.2742

EPHEMERIS_TYPE = 0
CLASSIFICATION_TYPE = U
NORAD_CAT_ID   = 67653
ELEMENT_SET_NO = 999
REV_AT_EPOCH   = 450
BSTAR          = .15297E-2
MEAN_MOTION_DOT = .23606E-2
MEAN_MOTION_DDOT = 0

CCSDS_OMM_VERS = 2.0
CREATION_DATE  = 
ORIGINATOR     = 

OBJECT_NAME    = STARLINK-36620
OBJECT_ID      = 2026-022G
CENTER_NAME    = EARTH
REF_FRAME      = TEME
TIME_SYSTEM    = UTC
MEAN_ELEMENT_THEORY = SGP/SGP4

EPOCH          = 2026-03-03T12:00:00.998784
MEAN_MOTION    = 15.75140069
ECCENTRICITY   = .000118
INCLINATION    = 97.2837
RA_OF_ASC_NODE = 96.1724
ARG_OF_PERICENTER = 92.5998
MEAN_ANOMALY   = 302.7237

EPHEMERIS_TYPE = 0
CLASSIFICATION_TYPE = U
NORAD_CAT_ID   = 67654
ELEMENT_SET_NO = 999
REV_AT_EPOCH   = 589
BSTAR          = .94709E-3
MEAN_MOTION_DOT = .143217E-2
MEAN_MOTION_DDOT = 0

CCSDS_OMM_VERS = 2.0
CREATION_DATE  = 
ORIGINATOR     = 

OBJECT_NAME    = STARLINK-36720
OBJECT_ID      = 2026-022H
CENTER_NAME    = EARTH
REF_FRAME      = TEME
TIME_SYSTEM    = UTC
MEAN_ELEMENT_THEORY = SGP/SGP4

EPOCH          = 2026-03-03T01:08:10.443840
MEAN_MOTION    = 15.75301509
ECCENTRICITY   = .000214
INCLINATION    = 97.2834
RA_OF_ASC_NODE = 95.7016
ARG_OF_PERICENTER = 129.3368
MEAN_ANOMALY   = 230.8087

EPHEMERIS_TYPE = 0
CLASSIFICATION_TYPE = U
NORAD_CAT_ID   = 67655
ELEMENT_SET_NO = 999
REV_AT_EPOCH   = 450
BSTAR          = .17506E-2
MEAN_MOTION_DOT = .270736E-2
MEAN_MOTION_DDOT = 0

CCSDS_OMM_VERS = 2.0
CREATION_DATE  = 
ORIGINATOR     = 

OBJECT_NAME    = STARLINK-36688
OBJECT_ID      = 2026-022J
CENTER_NAME    = EARTH
REF_FRAME      = TEME
TIME_SYSTEM    = UTC
MEAN_ELEMENT_THEORY = SGP/SGP4

EPOCH          = 2026-03-03T01:07:09.376320
MEAN_MOTION    = 15.75311607
ECCENTRICITY   = .0001809
INCLINATION    = 97.2839
RA_OF_ASC_NODE = 95.7025
ARG_OF_PERICENTER = 138.2611
MEAN_ANOMALY   = 221.8792

EPHEMERIS_TYPE = 0
CLASSIFICATION_TYPE = U
NORAD_CAT_ID   = 67656
ELEMENT_SET_NO = 999
REV_AT_EPOCH   = 450
BSTAR          = .19198E-2
MEAN_MOTION_DOT = .298013E-2
MEAN_MOTION_DDOT = 0

CCSDS_OMM_VERS = 2.0
CREATION_DATE  = 
ORIGINATOR     = 

OBJECT_NAME    = STARLINK-36706
OBJECT_ID      = 2026-022K
CENTER_NAME    = EARTH
REF_FRAME      = TEME
TIME_SYSTEM    = UTC
MEAN_ELEMENT_THEORY = SGP/SGP4

EPOCH          = 2026-03-03T01:05:07.423584
MEAN_MOTION    = 15.75373069
ECCENTRICITY   = .0002333
INCLINATION    = 97.2827
RA_OF_ASC_NODE = 95.7032
ARG_OF_PERICENTER = 135.9598
MEAN_ANOMALY   = 224.1854

EPHEMERIS_TYPE = 0
CLASSIFICATION_TYPE = U
NORAD_CAT_ID   = 67657
ELEMENT_SET_NO = 999
REV_AT_EPOCH   = 450
BSTAR          = .2588E-2
MEAN_MOTION_DOT = .40814E-2
MEAN_MOTION_DDOT = 0

CCSDS_OMM_VERS = 2.0
CREATION_DATE  = 
ORIGINATOR     = 

OBJECT_NAME    = STARLINK-36701
OBJECT_ID      = 2026-022L
CENTER_NAME    = EARTH
REF_FRAME      = TEME
TIME_SYSTEM    = UTC
MEAN_ELEMENT_THEORY = SGP/SGP4

EPOCH          = 2026-03-03T01:03:35.804160
MEAN_MOTION    = 15.75252047
ECCENTRICITY   = .0001799
INCLINATION    = 97.2840
RA_OF_ASC_NODE = 95.7070
ARG_OF_PERICENTER = 122.0200
MEAN_ANOMALY   = 238.1240

EPHEMERIS_TYPE = 0
CLASSIFICATION_TYPE = U
NORAD_CAT_ID   = 67658
ELEMENT_SET_NO = 999
REV_AT_EPOCH   = 450
BSTAR          = .12532E-2
MEAN_MOTION_DOT = .191554E-2
MEAN_MOTION_DDOT = 0

CCSDS_OMM_VERS = 2.0
CREATION_DATE  = 
ORIGINATOR     = 

OBJECT_NAME    = STARLINK-36642
OBJECT_ID      = 2026-022M
CENTER_NAME    = EARTH
REF_FRAME      = TEME
TIME_SYSTEM    = UTC
MEAN_ELEMENT_THEORY = SGP/SGP4

EPOCH          = 2026-03-03T01:02:04.488864
MEAN_MOTION    = 15.75296666
ECCENTRICITY   = .0001269
INCLINATION    = 97.2833
RA_OF_ASC_NODE = 95.7078
ARG_OF_PERICENTER = 132.2511
MEAN_ANOMALY   = 227.8862

EPHEMERIS_TYPE = 0
CLASSIFICATION_TYPE = U
NORAD_CAT_ID   = 67659
ELEMENT_SET_NO = 999
REV_AT_EPOCH   = 450
BSTAR          = .17033E-2
MEAN_MOTION_DOT = .263131E-2
MEAN_MOTION_DDOT = 0

